OPS 6582 (TRANSIT 5B-5) 
1 00965U 64083D   22073.87886517  .00000047  00000+0  52575-4 0  9993
2 00965  90.0293 195.1429 0042263 143.5349 327.5814 13.56771208832690
OSCAR 7 (AO-7)          
1 07530U 74089B   22073.93592916 -.00000025  00000+0  13290-3 0  9996
2 07530 101.8955  53.5405 0011974 222.2386 200.6433 12.53653515165629
UOSAT 2 (UO-11)         
1 14781U 84021B   22073.95972673  .00000932  00000+0  11943-3 0  9992
2 14781  97.6121  65.7428 0006889 273.4082  86.6345 14.83487393 26031
NOAA 9                  
1 15427U 84123A   22073.91924043  .00000089  00000+0  67918-4 0  9994
2 15427  99.0345  44.8735 0015832  74.2875 343.6870 14.16173866923237
LUSAT (LO-19)           
1 20442U 90005G   22073.84253717  .00000128  00000+0  63202-4 0  9994
2 20442  98.7822  37.3194 0012859  86.8375 273.4279 14.33029835679553
ITAMSAT (IO-26)         
1 22826U 93061D   22074.04217895  .00000098  00000+0  55373-4 0  9993
2 22826  98.8929 102.9175 0008190 318.7913  41.2649 14.30492850484910
RADIO ROSTO (RS-15)     
1 23439U 94085A   22074.56275997 -.00000037  00000+0  15882-3 0  9999
2 23439  64.8151 297.4810 0167051 288.6258  69.6591 11.27570944120906
JAS-2 (FO-29)           
1 24278U 96046B   22074.00820708 -.00000010  00000+0  24850-4 0  9992
2 24278  98.5293 110.6395 0350588 168.1816 192.7826 13.53111538262833
NOAA 15                 
1 25338U 98030A   22074.05427367  .00000113  00000+0  65738-4 0  9997
2 25338  98.6558 104.7744 0009970 207.1910 152.8749 14.26097521239564
TECHSAT 1B (GO-32)      
1 25397U 98043D   22073.83616661  .00000055  00000+0  43571-4 0  9994
2 25397  98.8071  24.1109 0001986  51.3421 308.7935 14.23736687229968
ISS (ZARYA)             
1 25544U 98067A   22074.51651072  .00008005  00000+0  15109-3 0  9993
2 25544  51.6426  80.4938 0004090 268.8721 229.5822 15.49420861330652
ORSTED                  
1 25635U 99008B   22073.91507197  .00000379  00000+0  96600-4 0  9993
2 25635  96.4750 320.8786 0139778 122.6496 238.8278 14.48401610216593
PHASE 3D (AO-40)        
1 26609U 00072B   22073.03193959  .00000010  00000+0  00000+0 0  9994
2 26609   7.7754 287.3422 7979991 345.1130   1.1827  1.25588619 97955
PCSAT (NO-44)           
1 26931U 01043C   22074.00735805  .00000097  00000+0  68747-4 0  9993
2 26931  67.0510 302.1730 0007566 276.6224  83.4016 14.30670452 67895
SAUDISAT 1C (SO-50)     
1 27607U 02058C   22073.80702256  .00000709  00000+0  11910-3 0  9991
2 27607  64.5540 231.4891 0071966 313.3122  46.1994 14.75950976 34407
CUTE-1 (CO-55)          
1 27844U 03031E   22073.95687434  .00000265  00000+0  13871-3 0  9997
2 27844  98.6816  83.0604 0010206  22.3315 337.8306 14.22394669970430
CUBESAT XI-IV (CO-57)   
1 27848U 03031J   22073.96106025  .00000223  00000+0  12054-3 0  9990
2 27848  98.6865  83.6014 0010340  35.5812 324.6053 14.21959518970258
MOZHAYETS 4 (RS-22)     
1 27939U 03042A   22074.56249322  .00001129  00000+0  20911-3 0  9995
2 27939  98.1731 215.3988 0013762 140.4805 219.7416 14.67180515987279
INMARSAT 4-F1           
1 28628U 05009A   22073.81242763 -.00000262  00000+0  00000+0 0  9996
2 28628   3.5444  34.0524 0003054 325.3976 248.9086  1.00271477 62074
NOAA 18                 
1 28654U 05018A   22073.93845736  .00000158  00000+0  10964-3 0  9994
2 28654  98.9583 144.4188 0013558 235.7763 124.2125 14.12698866866631
CUBESAT XI-V            
1 28895U 05043F   22073.87418458  .00001005  00000+0  19980-3 0  9998
2 28895  98.0899 206.8093 0017899  80.4399 279.8825 14.64137769873571
METOP-A                 
1 29499U 06044A   22074.03230216  .00000972  00000+0  13881-3 0  9990
2 29499  98.4642 115.5944 0197581 304.1718 111.7571 14.66984181796836
CARTOSAT-2 (IRS-P7)     
1 29710U 07001B   22073.81892637  .00016937  00000+0  45425-3 0  9993
2 29710  97.8613 174.1356 0161521  28.8177 332.1864 15.25822211821794
FALCONSAT-3             
1 30776U 07006E   22073.51379877  .00031466  00000+0  61025-3 0  9993
2 30776  35.4321 159.0152 0002343 202.9750 157.0875 15.46693931834840
CAPE-1                  
1 31130U 07012P   22073.81094035  .00000773  00000+0  17305-3 0  9997
2 31130  98.2613  15.0990 0094418 226.0943 133.2432 14.56911808791317
CARTOSAT-2A             
1 32783U 08021A   22074.49325770  .00000785  00000+0  11412-3 0  9997
2 32783  97.9779 135.6195 0014220 110.1959 250.0780 14.78655532749130
CUTE-1.7+APD II (CO-65) 
1 32785U 08021C   22073.97034131  .00001919  00000+0  20854-3 0  9999
2 32785  97.6468  47.8990 0012678 179.7555 180.3671 14.89160624752424
COMPASS-1               
1 32787U 08021E   22073.89983590  .00005088  00000+0  46999-3 0  9993
2 32787  97.5550  59.2312 0013949 101.9225 258.3560 14.94954115753926
AAUSAT-II               
1 32788U 08021F   22073.92418683  .00005680  00000+0  50342-3 0  9999
2 32788  97.5284  62.6839 0013607  82.5395 277.7373 14.96530215754297
DELFI-C3 (DO-64)        
1 32789U 08021G   22074.01189027  .00012259  00000+0  72984-3 0  9994
2 32789  97.3509 103.8468 0009198 292.8983  67.1276 15.11323435757659
SEEDS II (CO-66)        
1 32791U 08021J   22073.90331992  .00003284  00000+0  32837-3 0  9995
2 32791  97.6027  53.4380 0014035 139.3207 220.9063 14.92038809753096
YUBILEINY (RS-30)       
1 32953U 08025A   22074.53596266  .00000021  00000+0  80971-4 0  9995
2 32953  82.4989 242.3199 0020087 105.3601 254.9707 12.43107530626663
FENGYUN 3A              
1 32958U 08026A   22073.89160619  .00000082  00000+0  59655-4 0  9990
2 32958  98.4907  40.4469 0007790 301.2093  58.8320 14.18694365714818
PRISM (HITOMI)          
1 33493U 09002B   22073.90996314  .00005495  00000+0  46048-3 0  9995
2 33493  98.2257  55.1954 0016393 106.0969 254.2058 14.98759847714818
STARS (KUKAI)           
1 33498U 09002G   22073.92620140  .00001445  00000+0  19964-3 0  9991
2 33498  98.1814 324.2847 0010347 189.5989 170.5026 14.79684186707452
KKS-1 (KISEKI)          
1 33499U 09002H   22074.00804753  .00000774  00000+0  12060-3 0  9990
2 33499  98.2326 314.4221 0007745 255.9761 104.0586 14.75849206706312
NOAA 19                 
1 33591U 09005A   22074.07079334  .00000128  00000+0  94166-4 0  9993
2 33591  99.1604 106.1723 0014867  93.4957 266.7914 14.12537544674867
SWISSCUBE               
1 35932U 09051B   22074.00411195  .00000671  00000+0  16114-3 0  9992
2 35932  98.5809 287.2469 0007282 346.5373  13.5629 14.56718517662343
BEESAT-1                
1 35933U 09051C   22074.02950388  .00000574  00000+0  13929-3 0  9990
2 35933  98.5754 288.9631 0005754   2.3204 357.8019 14.56753571662429
ITUPSAT1                
1 35935U 09051E   22073.85210866  .00000527  00000+0  13108-3 0  9999
2 35935  98.5856 288.8602 0008088   1.8503 358.2723 14.55873474662140
XIWANG-1 (HOPE-1)       
1 36122U 09072B   22073.87492140 -.00000001  00000+0  10832-3 0  9999
2 36122 100.1721  48.7521 0007256 194.2308 165.8602 13.16366668588366
CARTOSAT-2B             
1 36795U 10035A   22074.46359960  .00001293  00000+0  18340-3 0  9999
2 36795  97.9722 135.7984 0013820 182.2329 177.8831 14.78631049630171
TISAT 1                 
1 36799U 10035E   22073.86294591  .00003165  00000+0  31503-3 0  9990
2 36799  98.1929 280.5579 0013033  50.5462 309.6907 14.92349604633651
FENGYUN 3B              
1 37214U 10059A   22074.53982587  .00000014  00000+0  31609-4 0  9991
2 37214  99.0938  78.8404 0021042 260.0519  99.8227 14.14246107587681
JUGNU                   
1 37839U 11058B   22074.05119080  .00000430  00000+0  86843-4 0  9993
2 37839  19.9625  28.0446 0018947 195.2868 244.3062 14.12756161538771
SRMSAT                  
1 37841U 11058D   22073.78392133  .00000382  00000+0  65015-4 0  9991
2 37841  19.9717 107.1470 0011995  24.7997 130.7816 14.10731157537856
M-CUBED & EXP-1 PRIME   
1 37855U 11061F   22073.75101556  .00009400  00000+0  43316-3 0  9993
2 37855 101.7089 143.0515 0159755 345.5469  14.1204 15.10025358567407
HORYU-2                 
1 38340U 12025D   22073.87482272  .00001445  00000+0  21570-3 0  9993
2 38340  98.2010 150.8588 0011881 165.0050 195.1514 14.76345794518281
METOP-B                 
1 38771U 12049A   22074.04954269  .00000085  00000+0  58847-4 0  9994
2 38771  98.6766 135.1800 0000614  36.4267 151.9222 14.21501397492322
SARAL                   
1 39086U 13009A   22073.99549080  .00000088  00000+0  49128-4 0  9990
2 39086  98.5478 261.0279 0001516 133.3568 226.7742 14.32058933472964
AAUSAT 3                
1 39087U 13009B   22074.49624292  .00001072  00000+0  38276-3 0  9991
2 39087  98.4073 276.3885 0012167 182.8712 177.2390 14.36076379474094
STRAND-1                
1 39090U 13009E   22074.04690425  .00000232  00000+0  95994-4 0  9995
2 39090  98.4109 274.6096 0008914 185.4955 174.6134 14.35253986473856
BRITE-AUSTRIA           
1 39091U 13009F   22074.03033152  .00000167  00000+0  73356-4 0  9998
2 39091  98.4119 273.7510 0010161 193.3772 166.7146 14.35236964473886
UNIBRITE                
1 39092U 13009G   22074.04350506  .00000144  00000+0  65353-4 0  9998
2 39092  98.4152 273.5097 0009171 187.7002 172.4044 14.35108728473847
SOMP                    
1 39134U 13015E   22074.06175142  .00016877  00000+0  65827-3 0  9990
2 39134  64.8648  10.9885 0031318 294.8123  64.9750 15.25617348492440
BEESAT-3                
1 39135U 13015F   22074.01865403  .00013486  00000+0  59281-3 0  9992
2 39135  64.8675  45.1109 0032807 304.1137  55.6880 15.21671739491736
BEESAT-2                
1 39136U 13015G   22074.01051740  .00011573  00000+0  52925-3 0  9997
2 39136  64.8755  52.7534 0010812 284.0694  75.9232 15.20838022491542
NEE-01 PEGASO           
1 39151U 13018B   22073.97806310  .00001478  00000+0  19892-3 0  9991
2 39151  97.9833 180.0370 0016580 197.3542 162.7105 14.80647379479696
CUBEBUG-1 (CAPITAN BETO)
1 39153U 13018D   22073.95311215  .00001819  00000+0  23957-3 0  9992
2 39153  98.0029 184.0932 0016539 192.3632 167.7177 14.81288560479760
